# From MPC106342
C/1995 O1 (Hale-Bopp),e,89.0268,283.2825,130.5306,178.9381,0.0004118,0.99494800,0.0000,03/29.7415/1997,2000,g -2.0,4.0
# From NK 1615
P/1996 R2 (Lagerkvist),e,2.6003,40.0279,333.3137,3.775022,0.1343770,0.31409561,98.0024,02/10.0/2021,2000,g 11.5,4.0
# From MPC 30063
P/1997 B1 (Kobayashi),e,12.3395,328.8829,183.3520,8.570161,0.0392844,0.76014320,343.8231,02/10.0/2021,2000,g 15.0,2.0
# From MPC 75703
P/1998 VS24 (LINEAR),e,5.0255,159.0323,244.6551,4.529117,0.1022548,0.24207618,114.4217,02/10.0/2021,2000,g 13.0,2.0
# From NK 731
P/1999 RO28 (LONEOS),e,7.5670,137.8843,231.2664,3.426742,0.1553753,0.67211598,92.4252,02/10.0/2021,2000,g 20.0,2.0
# From MPC 75704
P/1999 XN120 (Catalina),e,5.0296,285.2963,161.8770,4.179034,0.1153693,0.21028231,154.6716,02/10.0/2021,2000,g 13.5,2.0
# From NK 744
P/2000 R2 (LINEAR),e,11.6851,160.2916,176.5240,3.466288,0.1527239,0.53158741,92.1769,02/10.0/2021,2000,g 18.0,4.0
# From MPC 43019
P/2001 H5 (NEAT),e,8.3670,328.6837,224.8638,6.098052,0.0654512,0.59857751,127.0403,02/10.0/2021,2000,g 12.0,4.0
# From MPC 75704
P/2001 Q6 (NEAT),e,56.9049,22.1397,42.9388,7.951776,0.0439550,0.82286385,311.0348,02/10.0/2021,2000,g 13.5,4.0
# From MPC 47727
P/2002 EJ57 (LINEAR),e,4.9761,330.3272,167.3670,6.472388,0.0598559,0.59263532,57.9218,02/10.0/2021,2000,g 12.5,4.0
# From MPC109588
P/2002 T6 (NEAT-LINEAR),e,10.8341,206.3838,219.6279,7.674870,0.0463551,0.56026949,301.6322,02/10.0/2021,2000,g 10.5,4.0
# From MPC 75007
C/2002 VQ94 (LINEAR),e,70.5812,35.0267,100.1536,185.6077,0.0003898,0.96318514,2.1409,02/10.0/2021,2000,g  9.5,2.0
# From MPC 50354
P/2003 F2 (NEAT),e,11.6047,359.0601,191.9784,6.493550,0.0595636,0.54230484,27.1345,02/10.0/2021,2000,g 16.5,2.0
# From MPC 50139
P/2003 QX29 (NEAT),e,11.3898,264.5822,37.4345,8.030839,0.0433075,0.47299818,289.1035,02/10.0/2021,2000,g  8.5,4.0
# From MPC105235
P/2003 T12 (SOHO),e,11.0177,174.5739,219.7649,2.586105,0.2369927,0.76967412,66.1521,02/10.0/2021,2000,g 17.0,4.0
# From MPC 82312
P/2004 A1 (LONEOS),e,10.5516,124.8468,21.3781,7.957609,0.0439066,0.30932929,264.6177,02/10.0/2021,2000,g  6.5,4.0
# From MPC 54558
P/2004 DO29 (Spacewatch-LINEAR),e,14.5320,147.3764,40.7073,7.283631,0.0501398,0.44125260,299.2974,02/10.0/2021,2000,g 13.5,2.0
# From MPC 54823
P/2004 FY140 (LINEAR),e,2.1348,326.7603,242.4438,4.902256,0.0908051,0.16848141,184.1172,02/10.0/2021,2000,g 12.5,2.0
# From MPC 53304
P/2004 R3 (LINEAR-NEAT),e,12.8223,305.4812,38.3691,4.797856,0.0937850,0.26119879,338.6523,02/10.0/2021,2000,g 14.5,4.0
# From MPC 55521
P/2004 V3 (Siding Spring),e,50.4361,356.1188,322.3180,7.142947,0.0516283,0.44634393,307.5968,02/10.0/2021,2000,g 11.5,4.0
# From MPC 75705
P/2004 V5 (LINEAR-Hill),e,19.3439,47.7755,87.7548,7.977256,0.0437445,0.44353705,255.8332,02/10.0/2021,2000,g  8.0,4.0
# From MPEC 2021-BE3
P/2005 CR16,e,9.3937,139.9814,313.1045,6.628642,0.0577520,0.51016261,352.2835,02/10.0/2021,2000,g 12.5,4.0
# From MPC 54164
P/2005 E1 (Tubbiolo),e,4.2637,335.5694,194.1018,7.038486,0.0527819,0.37515237,309.2315,02/10.0/2021,2000,g 10.0,4.0
# From MPC 54823
P/2005 GF8 (LONEOS),e,1.1928,314.8258,284.9614,5.851838,0.0696251,0.51788079,34.8089,02/10.0/2021,2000,g 11.5,4.0
# From MPC 79019
P/2005 J1 (McNaught),e,31.7650,268.8061,338.9605,3.570037,0.1461151,0.56978801,124.3957,02/10.0/2021,2000,g 16.5,4.0
# From MPC 74246
P/2005 L1 (McNaught),e,7.7385,138.2479,149.7102,3.975283,0.1243518,0.20941221,326.9633,02/10.0/2021,2000,g  9.5,4.0
# From MPC 75706
P/2005 S2 (Skiff),e,3.1357,161.2009,229.1516,8.016534,0.0434234,0.19708281,234.1482,02/10.0/2021,2000,g  7.5,4.0
# From MPC 75706
P/2005 SB216 (LONEOS),e,24.0772,1.2199,83.3815,7.128799,0.0517821,0.46345791,266.5631,02/10.0/2021,2000,g 12.0,2.0
# From MPC 55717
P/2005 T2 (Christensen),e,8.2926,260.1579,58.8178,3.846081,0.1306701,0.41639344,40.1967,02/10.0/2021,2000,g 14.5,4.0
# From MPC 73461
P/2005 T3 (Read),e,6.2243,27.7313,6.9345,7.579579,0.0472320,0.17412166,264.6627,02/10.0/2021,2000,g  9.0,4.0
# From MPC 73461
P/2005 T4 (SWAN),e,160.1930,25.7020,41.6062,9.361124,0.0344122,0.92985321,193.1557,02/10.0/2021,2000,g 15.0,4.0
# From MPC 75706
P/2005 T5 (Broughton),e,21.3556,57.0051,304.5386,7.290900,0.0500648,0.55212270,280.6219,02/10.0/2021,2000,g 11.0,4.0
# From MPC 56954
P/2005 W3 (Kowalski),e,16.4192,210.0868,200.7050,6.330240,0.0618833,0.54342434,346.2118,02/10.0/2021,2000,g 12.0,4.0
# From MPC 75706
P/2005 Y2 (McNaught),e,19.0813,94.4890,193.9858,6.387860,0.0610479,0.47079477,6.8731,02/10.0/2021,2000,g  9.0,4.0
# From MPC 56954
P/2006 F4 (Spacewatch),e,12.4099,183.8541,31.0958,3.525186,0.1489125,0.33960512,83.0106,02/10.0/2021,2000,g 15.0,4.0
# From MPC 75707
P/2006 HR30 (Siding Spring),e,31.8294,309.9037,117.2881,7.811288,0.0451461,0.84211752,233.5253,02/10.0/2021,2000,g 11.0,4.0
# From MPC 75707
P/2006 S4 (Christensen),e,39.5336,36.0901,305.1462,6.313129,0.0621351,0.50813340,338.9578,02/10.0/2021,2000,g 11.0,4.0
# From MPC 75707
P/2007 A2 (Christensen),e,26.4877,300.9066,186.7486,6.325946,0.0619464,0.55762963,319.2802,02/10.0/2021,2000,g 13.5,4.0
# From MPEC 2021-BE3
P/2007 B1 (Christensen),e,12.3773,77.6737,46.6912,5.818882,0.0702174,0.58088849,1.1593,02/10.0/2021,2000,g 13.5,4.0
# From MPC 75707
P/2007 C2 (Catalina),e,8.6498,275.5861,179.9531,6.993060,0.0532971,0.47036290,260.2649,02/10.0/2021,2000,g 10.0,4.0
# From MPC 84315
C/2007 D1 (LINEAR),e,41.5016,171.1901,340.0726,1494,0.0000171,0.99409309,0.0000,06/09.2152/2007,2000,g  3.5,4.0
# From MPC 82314
P/2007 K2 (Gibbs),e,7.6348,188.6453,347.4587,7.263710,0.0503462,0.68324429,251.7310,02/10.0/2021,2000,g 14.0,4.0
# From MPC 60925
P/2007 Q2 (Gilmore),e,10.2027,172.1600,162.7749,5.653421,0.0733225,0.67017208,5.5014,02/10.0/2021,2000,g 16.0,4.0
# From MPEC 2021-BE3
C/2007 Q3 (Siding Spring),h,10/03.3469/2009,65.3652,149.5594,2.1775,1.000083,2.269666,2000,4.5,4.0
# From MPC 75708
P/2007 R4 (Garradd),e,20.2213,87.2213,282.6287,5.930469,0.0682450,0.67009193,339.4033,02/10.0/2021,2000,g 14.5,4.0
# From MPC 73462
P/2007 S1 (Zhao),e,5.9635,141.3758,245.6966,3.813941,0.1323254,0.33959048,279.8827,02/10.0/2021,2000,g 13.0,4.0
# From MPC 61994
P/2007 T2 (Kowalski),e,9.7464,3.3746,359.6365,3.047088,0.1853005,0.78529622,172.7379,02/10.0/2021,2000,g 18.5,4.0
# From MPC 75708
P/2008 CL94 (Lemmon),e,8.3470,33.3276,80.4864,6.161495,0.0644429,0.12032964,345.6065,02/10.0/2021,2000,g  8.0,4.0
# From MPEC 2021-BE3
C/2008 FK75 (Lemmon-Siding Spring),h,10/03.8605/2010,61.1551,218.2024,80.4523,1.001796,4.500233,2000,5.0,4.0
# From MPC 75709
P/2008 L2 (Hill),e,25.8587,218.0063,141.2152,6.028645,0.0665847,0.61309547,305.3880,02/10.0/2021,2000,g 12.5,4.0
# From MPC 64114
P/2008 O3 (Boattini),e,32.2576,47.5938,341.0909,8.222485,0.0418022,0.69521632,194.2043,02/10.0/2021,2000,g 13.0,4.0
# From MPC 75709
P/2008 QP20 (LINEAR-Hill),e,7.5224,322.0737,75.5819,3.553479,0.1471375,0.49209359,312.0142,02/10.0/2021,2000,g 15.5,4.0
# From MPC 66204
P/2008 WZ96 (LINEAR),e,7.1113,56.4627,341.8931,3.489326,0.1512139,0.47015840,330.1021,02/10.0/2021,2000,g 13.5,4.0
# From MPC 75710
P/2008 Y3 (McNaught),e,38.7641,262.7942,238.2463,8.046314,0.0431826,0.44548960,191.3158,02/10.0/2021,2000,g  8.5,4.0
# From MPC 75710
P/2009 B1 (Boattini),e,22.2193,297.0913,128.8871,6.736341,0.0563726,0.63471302,249.0006,02/10.0/2021,2000,g 13.0,4.0
# From MPC 66466
C/2009 G1 (STEREO),e,108.7459,120.4336,175.4012,430.5562,0.0001103,0.99736262,0.0000,04/15.4323/2009,2000,g  9.0,4.0
# From MPEC 2021-BE3
C/2009 K5 (McNaught),e,104.1711,258.0172,66.0678,3565,0.0000046,0.99960427,0.0000,05/04.1849/2010,2000,g  7.5,4.0
# From MPC 75710
P/2009 O3 (Hill),e,16.2680,183.7106,154.3999,7.770067,0.0455058,0.68763430,194.8972,02/10.0/2021,2000,g 12.5,4.0
# From MPC 98557
P/2009 Q1 (Hill),e,14.5055,173.9596,157.1263,5.520483,0.0759868,0.49483713,324.4275,02/10.0/2021,2000,g 11.5,4.0
# From MPC 68902
P/2009 Q5 (McNaught),e,40.9783,160.2677,209.0213,7.437310,0.0485937,0.60882081,203.0052,02/10.0/2021,2000,g 10.0,4.0
# From MPC112389
P/2009 T2 (La Sagra),e,27.5526,215.8017,216.4071,7.723973,0.0459138,0.76517822,186.5374,02/10.0/2021,2000,g 14.0,4.0
# From MPC 75711
P/2009 U4 (McNaught),e,10.0805,55.3534,259.8380,5.083857,0.0859833,0.67611903,0.7654,02/10.0/2021,2000,g 14.0,4.0
# From MPC105235
P/2009 WX51 (Catalina),e,9.5954,31.6828,118.0744,3.080535,0.1822908,0.74029626,15.6108,02/10.0/2021,2000,g 19.0,2.0
# From MPEC 2021-BE3
C/2009 Y1 (Catalina),e,107.3211,159.9508,127.1116,332.7123,0.0001624,0.99245589,0.0000,01/27.4170/2011,2000,g  9.0,4.0
# From MPC 74247
P/2009 Y2 (Kowalski),e,29.9304,262.0244,172.1606,6.549445,0.0588027,0.63591766,235.1084,02/10.0/2021,2000,g 13.0,4.0
# From MPC 75711
P/2010 A3 (Hill),e,14.8538,64.0057,42.0097,6.076417,0.0658010,0.73335762,261.8000,02/10.0/2021,2000,g 14.0,4.0
# From MPEC 2021-BE3
P/2010 A5 (LINEAR),e,5.7977,277.6629,307.0899,5.082909,0.0860073,0.66498183,338.5371,02/10.0/2021,2000,g 13.0,4.0
# From MPEC 2021-BE3
P/2010 B2 (WISE),e,8.9311,0.8488,155.9187,3.110064,0.1797009,0.47990103,11.9725,02/10.0/2021,2000,g 17.0,4.0
# From MPC 75008
P/2010 C1 (Scotti),e,9.1281,141.8860,3.7403,7.103150,0.0520628,0.25866191,213.7253,02/10.0/2021,2000,g  9.5,4.0
# From MPC 75008
P/2010 D2 (WISE),e,57.0847,319.8919,120.0738,6.716147,0.0566270,0.45090097,227.2358,02/10.0/2021,2000,g 16.0,4.0
# From MPC 75009
P/2010 E2 (Jarnac),e,15.4019,177.8245,8.3679,8.638427,0.0388197,0.72010189,153.9706,02/10.0/2021,2000,g 14.0,4.0
# From MPEC 2021-BE3
C/2010 E3 (WISE),e,96.0034,117.1646,50.5125,238.7028,0.0002673,0.99048102,0.0000,04/01.7007/2010,2000,g 15.0,4.0
# From MPEC 2021-BE3
P/2010 H2 (Vales),e,14.2733,64.2031,128.1976,3.834184,0.1312788,0.19573962,164.0711,02/10.0/2021,2000,g  6.0,4.0
# From MPC 70361
P/2010 H3 (SOHO),e,23.0875,77.1009,26.1395,3.038935,0.1860467,0.98538935,0.0000,02/07.9651/2021,2000,g 20.0,2.0
# From MPC 73463
P/2010 H4 (Scotti),e,2.3187,44.7444,179.5537,6.590454,0.0582547,0.26739772,226.5191,02/10.0/2021,2000,g 10.5,4.0
# From MPC 74637
